{"type":"FeatureCollection","features":[{"type":"Feature","geometry":{"type":"LineString","coordinates":[[-122.61533900000002,42.005452999061745],[-122.61535599999999,42.00548199906175],[-122.61554199999999,42.00584799906174],[-122.61561799999998,42.00605699906174],[-122.61567500000001,42.006282999061746],[-122.61571300000003,42.00654999906174],[-122.615728,42.00687799906175],[-122.61570800000001,42.00711999906174],[-122.61505000000002,42.010311999061734],[-122.614314,42.01368999906171],[-122.61401799999999,42.01461499906171],[-122.61393000000002,42.01484599906172],[-122.61386000000006,42.01499999906172],[-122.61366000000002,42.01536499906172],[-122.613164,42.016023999061716],[-122.612963,42.016229999061714],[-122.61171799999995,42.01738399906171],[-122.61112299999999,42.01793799906172],[-122.61081700000001,42.018221999061694],[-122.610609,42.01841299906171],[-122.610495,42.01851799906171],[-122.609768,42.0191829990617],[-122.60822600000002,42.020596999061695],[-122.60656700000004,42.02219699906169],[-122.606259,42.022555999061694],[-122.606053,42.022857999061685],[-122.60597200000001,42.023014999061694],[-122.60581299999997,42.023319999061705],[-122.605553,42.02395399906169],[-122.60507899999999,42.025410999061684],[-122.60249999999999,42.033474999061646],[-122.602212,42.034032999061665],[-122.601929,42.034481999061654],[-122.601734,42.03475999906166],[-122.60161399999998,42.034906999061654],[-122.60152100000005,42.03500499906166],[-122.60070999999996,42.03575699906166],[-122.59910699999999,42.037130999061645],[-122.59862499999998,42.03755199906164],[-122.598479,42.03771799906165],[-122.59827300000002,42.03799099906165],[-122.59810899999998,42.03825499906164],[-122.598017,42.03841499906165],[-122.59791500000003,42.03868599906164],[-122.59785800000002,42.03907299906164],[-122.597843,42.03926899906165],[-122.597843,42.03946099906164],[-122.59786900000006,42.03963699906165],[-122.597962,42.03993899906163],[-122.59798900000003,42.040058999061635],[-122.598055,42.04022299906165],[-122.59820700000002,42.04047899906163],[-122.59830299999999,42.040607999061635],[-122.59842399999998,42.04074699906163],[-122.59855300000001,42.04087499906162],[-122.59871300000003,42.04100799906163],[-122.60334499999998,42.04452299906161],[-122.60433199999999,42.045260999061625],[-122.60455799999998,42.04545499906161],[-122.604702,42.04559199906163],[-122.604831,42.04574599906162],[-122.60501099999998,42.046000999061626],[-122.60516300000005,42.04626699906162],[-122.605811,42.047898999061616],[-122.606324,42.049294999061615],[-122.60647500000002,42.049672999061606],[-122.60660799999998,42.04993899906161],[-122.606759,42.0501469990616],[-122.606922,42.05034799906159],[-122.60722600000001,42.0506719990616],[-122.607502,42.05093599906159],[-122.60775400000003,42.05113699906159],[-122.60873300000002,42.051874999061596],[-122.60933999999999,42.05243099906159],[-122.60965899999998,42.052809999061594],[-122.609786,42.0530179990616],[-122.60985099999998,42.05315099906158],[-122.60987800000001,42.0532629990616],[-122.60997700000001,42.05357499906159],[-122.61002500000004,42.053784999061584],[-122.61006000000005,42.05399499906159],[-122.61006699999999,42.054632999061596],[-122.60996600000003,42.05581899906158],[-122.609927,42.05607799906157],[-122.609883,42.05625799906157],[-122.60969200000001,42.05682099906158],[-122.60959400000003,42.057041999061575],[-122.60948400000005,42.05723599906159],[-122.60802500000001,42.05928399906157],[-122.60764186936474,42.05983005035781]]},"id":"003c0000000000004285","properties":{"fullname":"I- 5","linearid":"1104469295552","mtfcc":"S1100","rttyp":"I"}},{"type":"Feature","geometry":{"type":"LineString","coordinates":[[-122.60778991266668,42.05990054167559],[-122.60965899999998,42.05729899906158],[-122.61009900000002,42.05646099906158],[-122.61015700000004,42.05631099906157],[-122.61022400000003,42.05611399906159],[-122.610378,42.05532899906159],[-122.61045,42.05445299906158],[-122.61047300000007,42.05405899906159],[-122.61042400000001,42.05342699906158],[-122.61038,42.05322399906159],[-122.6103,42.05300799906159],[-122.610194,42.052755999061596],[-122.61004199999999,42.05250399906157],[-122.60989500000002,42.05231499906159],[-122.60964099999998,42.05202199906161],[-122.60948900000005,42.05186999906161],[-122.609252,42.0516599990616],[-122.60847500000001,42.05103199906158],[-122.60785899999999,42.05045799906161],[-122.607669,42.050267999061596],[-122.60751,42.0500639990616],[-122.60731899999999,42.0497569990616],[-122.60714299999998,42.0493509990616],[-122.607115,42.04927599906159],[-122.60643700000001,42.04749599906161],[-122.60616700000001,42.04678899906161],[-122.605853,42.046136999061616],[-122.60569500000001,42.045849999061616],[-122.60552900000002,42.04561499906161],[-122.60521100000003,42.04524699906162],[-122.604927,42.044968999061616],[-122.604466,42.04460499906161],[-122.60403799999999,42.04424199906162],[-122.603394,42.04373199906162],[-122.59987900000002,42.04108099906163],[-122.59955699999999,42.04078399906163],[-122.59942799999999,42.040655999061634],[-122.599292,42.04046499906162],[-122.599169,42.04023199906164],[-122.599027,42.03998799906164],[-122.59894600000001,42.03978599906163],[-122.59889999999999,42.039559999061645],[-122.59885800000005,42.039231999061634],[-122.59887200000003,42.03911199906163],[-122.598917,42.038706999061645],[-122.59897800000003,42.03852799906165],[-122.59902900000002,42.03840699906165],[-122.59914400000004,42.03823599906164],[-122.59960300000004,42.03765099906165],[-122.59995099999999,42.03729099906164],[-122.60148200000002,42.03589499906165],[-122.602103,42.035368999061646],[-122.602257,42.035193999061654],[-122.60241599999999,42.03497399906165],[-122.602535,42.03478899906165],[-122.60262699999998,42.03459699906166],[-122.60297200000001,42.03381799906167],[-122.60439500000001,42.02940799906167],[-122.60563100000006,42.02549599906169],[-122.60615,42.02407399906169],[-122.606362,42.02363999906169],[-122.606639,42.023160999061695],[-122.60666199999999,42.0231339990617],[-122.60702800000001,42.02270099906169],[-122.607159,42.022569999061695],[-122.607324,42.022392999061694],[-122.610507,42.019421999061706],[-122.61150800000001,42.018486999061714],[-122.61154100000002,42.018456999061705],[-122.61189799999998,42.01813699906171],[-122.61236899999999,42.01771499906171],[-122.61259500000001,42.01751199906171],[-122.61318099999997,42.016917999061704],[-122.61361200000005,42.01639199906171],[-122.61377300000001,42.016160999061704],[-122.61394200000002,42.015917999061706],[-122.61407200000002,42.01566399906172],[-122.61425600000001,42.01519599906172],[-122.61433600000001,42.014987999061724],[-122.61438200000003,42.014806999061726],[-122.61445600000002,42.01456199906172],[-122.615333,42.010291999061714],[-122.61594699999999,42.00712399906174],[-122.61597200000001,42.00686399906174],[-122.615945,42.006516999061745],[-122.61584500000004,42.005889999061765],[-122.61569899999999,42.00545499906174],[-122.61569200000002,42.00544099906174]]},"id":"003c0000000000004286","properties":{"fullname":"I- 5","linearid":"110340469275","mtfcc":"S1100","rttyp":"I"}},{"type":"Feature","geometry":{"type":"LineString","coordinates":[[-122.6153278881731,42.00543368566609],[-122.61533900000002,42.005452999061745]]},"id":"003c000000000000428a","properties":{"fullname":"I- 5","linearid":"1101917542860","mtfcc":"S1100","rttyp":"I"}},{"type":"Feature","geometry":{"type":"LineString","coordinates":[[-122.61568362789983,42.005422777448864],[-122.61569200000002,42.00544099906174]]},"id":"003c000000000000428b","properties":{"fullname":"I- 5","linearid":"1101917542861","mtfcc":"S1100","rttyp":"I"}},{"type":"Feature","geometry":{"type":"MultiLineString","coordinates":[[[-122.56180366873893,42.13152472512197],[-122.561407,42.13156399906133],[-122.561144,42.13156999906132],[-122.560906,42.131549999061335],[-122.56016199999999,42.13139299906133],[-122.558762,42.13122299906134],[-122.558531,42.131211999061335],[-122.55832300000002,42.13123099906134],[-122.55815000000003,42.131275999061344],[-122.55804600000002,42.13133499906134],[-122.55765700000003,42.131670999061335],[-122.557477,42.13182699906133],[-122.556516,42.13261599906134],[-122.55616699999997,42.13281399906132],[-122.555639,42.133021999061334],[-122.55550999999997,42.133053999061325],[-122.55536499999998,42.133074999061336],[-122.55483699999998,42.13308699906134],[-122.55472499999999,42.133103999061326],[-122.55464499999998,42.133126999061325],[-122.55449899999999,42.13319699906133],[-122.55420200000003,42.13343899906132],[-122.55402200000002,42.13355299906133],[-122.553854,42.13361799906133],[-122.553706,42.13364299906133],[-122.553526,42.133650999061324],[-122.55332299999999,42.13364099906133],[-122.55312199999999,42.13360399906132],[-122.55302600000002,42.13356699906133],[-122.55293600000002,42.13353299906133],[-122.55275000000005,42.133428999061344],[-122.55180799999998,42.13256599906132],[-122.55167499999999,42.13248499906134],[-122.55149800000001,42.132416999061334],[-122.550968,42.132244999061335],[-122.55088300000001,42.13218999906134],[-122.55082999999999,42.13212999906133],[-122.550764,42.13198599906134],[-122.55070899999998,42.131711999061324],[-122.550679,42.131631999061334],[-122.55056700000002,42.13148299906133],[-122.55046899999995,42.13138399906133],[-122.55038699999999,42.13132399906135],[-122.550217,42.13123199906134],[-122.55007499999998,42.13118099906133],[-122.54991799999999,42.13113699906135],[-122.54960099999998,42.13108999906135],[-122.54947,42.13105999906134],[-122.54934100000003,42.130985999061345],[-122.54910100000002,42.130717999061346],[-122.54871100000003,42.130187999061334],[-122.54866999999999,42.13014599906134],[-122.548575,42.130087999061345],[-122.54843199999999,42.13002299906134],[-122.548049,42.12991399906134],[-122.54759,42.129823999061344],[-122.54747699999999,42.12980799906134],[-122.54714499999997,42.12980999906135],[-122.546973,42.12984099906134],[-122.54683,42.129896999061344],[-122.54561199999999,42.130672999061346],[-122.54546599999999,42.130741999061335],[-122.545143,42.13084399906135],[-122.544948,42.130875999061345],[-122.54366500000002,42.13116199906134],[-122.54321699999998,42.13129599906133],[-122.54286900000001,42.13143099906134],[-122.54277599999999,42.131502999061325],[-122.54266500000001,42.13166999906132],[-122.542648,42.13173399906133],[-122.54264099999999,42.13181099906133],[-122.542655,42.131870999061334],[-122.54269199999999,42.131977999061334],[-122.54296600000004,42.13234199906134],[-122.54301299999999,42.13243499906134],[-122.54302799999998,42.13253399906134],[-122.54295599999999,42.132684999061325],[-122.542921,42.13272199906134],[-122.542897,42.13273399906134],[-122.54282699999997,42.13275599906134],[-122.54199,42.13284999906134],[-122.54183000000002,42.132891999061336],[-122.54173700000001,42.132957999061325],[-122.541345,42.133401999061334],[-122.54109299999998,42.13367999906133],[-122.54097699999998,42.13376399906133],[-122.54085500000001,42.13379499906133],[-122.54072600000003,42.13380599906133],[-122.54030199999998,42.13379299906132],[-122.540093,42.13380899906133],[-122.539965,42.13383199906133],[-122.53984799999999,42.13387999906133],[-122.538737,42.13430699906133],[-122.538577,42.13433899906132],[-122.53841199999997,42.13434999906133],[-122.53821200000002,42.13433799906132],[-122.537405,42.13421199906133],[-122.53716100000001,42.13418999906132],[-122.53682100000003,42.134167999061326],[-122.53658300000001,42.13416399906133],[-122.53622200000004,42.13412199906132],[-122.536105,42.134097999061325],[-122.53594500000001,42.13403099906133],[-122.53579200000001,42.13394699906133],[-122.53566599999998,42.13389199906132],[-122.535499,42.13384099906133],[-122.53531699999999,42.13381799906132],[-122.53507099999999,42.13381299906133],[-122.53491799999999,42.13383099906133],[-122.534753,42.133862999061336],[-122.53435400000001,42.13396699906132],[-122.534211,42.13403599906132],[-122.534104,42.13410999906133],[-122.53398500000002,42.134165999061324],[-122.533877,42.13419199906133],[-122.533692,42.13420299906133],[-122.53313799999998,42.13419899906133],[-122.53304100000005,42.13417399906133],[-122.53282300000001,42.13403999906132],[-122.532809,42.13401899906132],[-122.53276400000003,42.13395099906133],[-122.53274099999999,42.133866999061325],[-122.532759,42.13371499906131],[-122.53305200000001,42.13315299906134],[-122.53308100000001,42.13302299906134],[-122.53309200000002,42.13277999906132],[-122.53310500000002,42.13261399906132],[-122.53313199999998,42.13251199906133],[-122.53319799999998,42.13241499906133],[-122.53325699999999,42.132374999061334],[-122.53334699999999,42.132345999061336],[-122.533704,42.13231099906133],[-122.53387499999997,42.132284999061326],[-122.53403399999998,42.13222899906134],[-122.53421399999998,42.132143999061334],[-122.53436300000001,42.132038999061336],[-122.534542,42.131822999061335],[-122.534695,42.131549999061335],[-122.53476200000001,42.13140199906133],[-122.53477699999999,42.13125699906133],[-122.534721,42.13050099906134],[-122.534751,42.13032699906133],[-122.534773,42.13023899906133],[-122.53483700000002,42.13013699906133],[-122.534869,42.13009399906135],[-122.53494,42.13005599906134],[-122.53501199999998,42.13002799906135],[-122.53507199999997,42.13002099906134],[-122.53594199999999,42.129979999061334],[-122.536067,42.12996699906134],[-122.53615500000005,42.12995099906134],[-122.53627100000006,42.129917999061334],[-122.53634300000003,42.12988099906133],[-122.53644,42.12983099906133],[-122.53681399999998,42.12951999906132],[-122.53722900000002,42.12930199906134],[-122.53743999999999,42.12913799906135],[-122.53750100000003,42.12906399906134],[-122.53755000000002,42.128957999061335],[-122.53760600000007,42.12840699906135],[-122.53764699999999,42.12826299906134],[-122.53770799999998,42.128107999061335],[-122.537811,42.12797499906133],[-122.53822000000005,42.12761599906134],[-122.53835600000002,42.12744199906134],[-122.53840400000001,42.12732699906137],[-122.538426,42.127145999061355],[-122.53841600000005,42.12705099906136],[-122.538397,42.126975999061344],[-122.53835800000003,42.12690799906136],[-122.53830799999999,42.12684599906136],[-122.53819300000002,42.12677199906134],[-122.538041,42.12671699906134],[-122.53784599999999,42.126651999061345],[-122.53762900000002,42.12659799906135],[-122.53737999999998,42.12652199906136],[-122.537087,42.12640299906135],[-122.536865,42.12625599906136],[-122.53624200000002,42.12590399906135],[-122.53587100000004,42.12578299906135],[-122.53558,42.12570899906136],[-122.53523300000002,42.12562199906133],[-122.53492399999999,42.12548699906134],[-122.53432,42.125161999061355],[-122.534088,42.12495499906134],[-122.53398800000001,42.12484899906135],[-122.53350200000001,42.124224999061354],[-122.53328,42.12397899906135],[-122.53297700000006,42.12373399906136],[-122.53281299999996,42.12362899906137],[-122.53266100000002,42.12355899906137],[-122.532533,42.123496999061366],[-122.53232200000001,42.12342699906136],[-122.53194899999998,42.12337999906135],[-122.531516,42.12337999906135],[-122.53127100000002,42.123391999061376],[-122.531119,42.12337999906135],[-122.531014,42.12333299906137],[-122.53078000000002,42.12321599906135],[-122.53053500000001,42.123110999061375],[-122.530068,42.122947999061374],[-122.52965900000001,42.12279599906137],[-122.52940200000003,42.12274899906136],[-122.52918000000003,42.122764999061374],[-122.528714,42.122850999061356],[-122.52812700000001,42.12303399906136],[-122.52798599999998,42.12310799906137],[-122.52786,42.123196999061356],[-122.52776700000001,42.12333699906135],[-122.52775500000001,42.123616999061355],[-122.527813,42.12393299906136],[-122.527802,42.124165999061354],[-122.52775499999998,42.124235999061355],[-122.527696,42.12429499906136],[-122.52759100000003,42.12435299906135],[-122.527486,42.12438799906137],[-122.52727600000003,42.124469999061354],[-122.52712400000004,42.12458299906136],[-122.52697200000004,42.12473499906136],[-122.52687900000001,42.12491399906135],[-122.52682899999999,42.12522999906136],[-122.52682,42.125334999061344],[-122.526774,42.12545099906134],[-122.526727,42.12560299906134],[-122.526587,42.12591799906134],[-122.52653100000003,42.12612899906135],[-122.52652600000002,42.12622299906135],[-122.52658000000002,42.12641799906135],[-122.52678400000002,42.12685599906135],[-122.52684500000001,42.126987999061356],[-122.52685500000001,42.12710399906135],[-122.52681400000003,42.12727199906134],[-122.52671899999999,42.12745999906134],[-122.526446,42.12766899906135],[-122.526141,42.12787899906135],[-122.52584900000001,42.128173999061346],[-122.52559700000003,42.12833099906134],[-122.52496699999999,42.128498999061335],[-122.52474700000003,42.12850899906135],[-122.52446400000001,42.128477999061346],[-122.52422300000005,42.12838299906134],[-122.52394000000007,42.12822599906134],[-122.52363500000001,42.12808999906135],[-122.523321,42.12804799906133],[-122.522985,42.12801599906133],[-122.52267000000003,42.127942999061354],[-122.52231400000001,42.127827999061346],[-122.52187299999999,42.127596999061346],[-122.52168400000001,42.12740799906135],[-122.521502,42.12725899906135],[-122.52097000000003,42.127045999061345],[-122.52051999999998,42.12691499906135],[-122.51995400000004,42.12670499906136],[-122.51963900000004,42.12662099906135],[-122.51935600000002,42.12659999906136],[-122.51914599999999,42.12659999906136],[-122.518926,42.12653699906135],[-122.518569,42.12639099906135],[-122.518286,42.12624399906134],[-122.518118,42.12604399906135],[-122.51796099999999,42.125834999061354],[-122.51782500000002,42.125634999061354],[-122.51773,42.12540499906136],[-122.51764600000001,42.12517399906135],[-122.51752,42.12490099906137],[-122.51743700000003,42.12478599906136],[-122.51727900000002,42.12464899906136],[-122.51704800000002,42.124533999061356],[-122.51680699999999,42.12443999906134],[-122.516418,42.12437799906136],[-122.515756,42.12444799906137],[-122.515242,42.12446599906135],[-122.51486800000002,42.12448699906135],[-122.51464300000002,42.12452399906136],[-122.51413800000005,42.12469199906136],[-122.51374500000001,42.12487899906135],[-122.51350199999999,42.12508499906136],[-122.513222,42.12525299906137],[-122.51299700000001,42.12530999906134],[-122.512567,42.12534699906135],[-122.51202500000001,42.125421999061366],[-122.51172499999998,42.12534699906135],[-122.511351,42.12512299906136],[-122.51107100000004,42.125028999061364],[-122.51080900000004,42.124878999061345],[-122.510465,42.12454699906136],[-122.510117,42.124280999061355],[-122.509967,42.12420599906136],[-122.50966800000002,42.12413099906136],[-122.50931299999999,42.12407499906135],[-122.50897600000003,42.12405599906136],[-122.50867699999999,42.12403799906135],[-122.50754,42.12376499906136],[-122.50688100000002,42.12364499906137],[-122.506544,42.12356999906135],[-122.50617000000001,42.123532999061354],[-122.50596400000003,42.12356999906135],[-122.505796,42.12364499906136],[-122.50554500000001,42.123844999061355],[-122.50518600000001,42.12436099906136],[-122.504865,42.12483199906135],[-122.504775,42.12499199906135],[-122.50469300000002,42.125151999061345],[-122.504322,42.12607199906135],[-122.504225,42.126366999061354],[-122.50411200000002,42.126516999061344],[-122.50394900000003,42.12662999906134],[-122.50257100000003,42.12720599906136],[-122.501618,42.12768699906134],[-122.501092,42.12793699906134],[-122.50014100000004,42.12848799906134],[-122.49936099999998,42.12904399906135],[-122.49919700000002,42.129135999061354],[-122.49903800000003,42.12918399906135],[-122.49882000000002,42.12920299906134],[-122.498388,42.12918299906134],[-122.49695500000001,42.12905899906135],[-122.49680700000003,42.12906699906133],[-122.49668700000002,42.129100999061336],[-122.49651700000001,42.12921599906134],[-122.496365,42.12936599906133],[-122.49620200000001,42.12954799906132],[-122.49614000000001,42.12965899906133],[-122.49612700000004,42.129769999061345],[-122.49619200000002,42.130023999061336],[-122.49624099999998,42.13017599906133],[-122.49630099999999,42.130282999061336],[-122.49635200000002,42.13035699906133],[-122.49647200000001,42.13048799906132],[-122.496927,42.130923999061345],[-122.49734000000001,42.13121299906133],[-122.49745600000003,42.13131399906134],[-122.49753,42.13142499906134],[-122.497609,42.131565999061316],[-122.49765199999999,42.13166699906134],[-122.49766700000002,42.13175399906134],[-122.49764900000001,42.13181499906133],[-122.49761000000002,42.13185699906132],[-122.497507,42.13191699906134],[-122.49742699999999,42.131947999061346],[-122.497335,42.13195499906132],[-122.497173,42.13193399906134],[-122.49704599999995,42.13188599906133],[-122.49666499999998,42.13160799906132],[-122.49629300000004,42.131414999061334],[-122.49612200000003,42.13136399906133],[-122.49601300000005,42.131347999061326],[-122.495916,42.13134399906133],[-122.49575500000005,42.13135299906132],[-122.49559000000004,42.13136799906133],[-122.495462,42.131396999061316],[-122.49485899999999,42.131592999061326],[-122.49472,42.131655999061316],[-122.49456300000001,42.13179999906133],[-122.49453500000001,42.13186499906133],[-122.49452999999998,42.13192899906134],[-122.494455,42.13299699906132],[-122.494437,42.13324699906133],[-122.49441900000001,42.13334599906132],[-122.494353,42.13342199906133],[-122.49425700000003,42.13347199906133],[-122.49409700000001,42.13351399906132],[-122.493993,42.13352799906133],[-122.49390000000001,42.13351699906133],[-122.49339,42.13340499906132],[-122.49325899999998,42.133393999061326],[-122.493036,42.133405999061324],[-122.492873,42.13344299906133],[-122.49274400000003,42.13350099906133],[-122.49244300000001,42.13367699906132],[-122.492321,42.13372899906132],[-122.492132,42.13375299906133],[-122.491958,42.13372899906132],[-122.49182700000001,42.133686999061325],[-122.49156200000003,42.133582999061325],[-122.49115199999999,42.133373999061334],[-122.49094,42.13330899906133],[-122.490649,42.13324899906134],[-122.490389,42.13323099906133],[-122.49011100000003,42.133239999061345],[-122.48980600000002,42.13331199906133],[-122.48951900000002,42.13343499906132],[-122.489409,42.13347699906134],[-122.48931700000001,42.13349299906133],[-122.48922000000003,42.133500999061326],[-122.489033,42.133467999061324],[-122.48891900000001,42.13342199906133],[-122.48859000000003,42.133208999061324],[-122.488393,42.13312299906133],[-122.48697100000003,42.13268899906133],[-122.48678900000002,42.13264299906133],[-122.486598,42.13261399906132],[-122.48638,42.13260299906133],[-122.48624600000001,42.132583999061346],[-122.48613200000001,42.132537999061334],[-122.48472600000002,42.131709999061336],[-122.48451300000002,42.131565999061344],[-122.484271,42.13135299906132],[-122.484142,42.131239999061336],[-122.484067,42.13116299906134],[-122.484012,42.13108599906133],[-122.48395099999999,42.13088899906134],[-122.483884,42.13048499906134],[-122.48384000000003,42.130377999061345],[-122.48376799999998,42.130263999061334],[-122.483632,42.13015899906133],[-122.483451,42.130068999061336],[-122.483281,42.130038999061334],[-122.48310400000003,42.13004199906133],[-122.483019,42.13004999906133],[-122.48290099999998,42.130067999061346],[-122.482687,42.13010199906134],[-122.482173,42.13019899906132],[-122.48191700000001,42.130257999061335],[-122.481762,42.130306999061325],[-122.48076599999999,42.13069499906134],[-122.48047500000001,42.130837999061335],[-122.480273,42.13096099906135],[-122.48010299999999,42.131052999061346],[-122.47993499999998,42.13112799906135],[-122.479772,42.13117299906134],[-122.4796,42.131244999061344],[-122.47951399999998,42.13131499906134],[-122.47938099999999,42.13146899906133],[-122.47895000000004,42.13214099906134],[-122.478591,42.13295699906133],[-122.478513,42.13306599906133],[-122.47830600000003,42.13324799906134],[-122.47771300000001,42.13351599906133],[-122.477573,42.13358599906134],[-122.47746299999999,42.13366299906133],[-122.47741600000002,42.133711999061326],[-122.47738500000003,42.13376999906133],[-122.477415,42.13406699906132],[-122.47749500000006,42.13430199906132],[-122.477493,42.13438099906133],[-122.47746299999999,42.134449999061324],[-122.47742800000002,42.13449299906132],[-122.47739499999999,42.13451499906133],[-122.47736700000002,42.13452699906133],[-122.477216,42.13456499906133],[-122.47713599999999,42.13457599906132],[-122.47704200000003,42.13456599906132],[-122.47691700000001,42.13452599906134],[-122.47681399999996,42.13445199906133],[-122.47636900000003,42.13392999906133],[-122.476252,42.13369499906132],[-122.47623200000002,42.13362899906132],[-122.476243,42.133544999061336],[-122.47627700000002,42.133467999061324],[-122.476339,42.133401999061334],[-122.476759,42.132921999061324],[-122.476915,42.13269299906133],[-122.47698299999999,42.13257899906133],[-122.47708300000001,42.13233999906134],[-122.47716000000001,42.132098999061334],[-122.47725699999998,42.13165599906134],[-122.47740599999996,42.131076999061335],[-122.47741299999998,42.13087399906134],[-122.47737900000001,42.130696999061335],[-122.477158,42.130065999061344],[-122.47712199999998,42.12990899906134],[-122.477125,42.129578999061344],[-122.477164,42.12938399906134],[-122.477192,42.12927399906134],[-122.47720199999999,42.12912199906135],[-122.47714200000001,42.12884499906134],[-122.47695400000003,42.128258999061345],[-122.476828,42.12798699906135],[-122.47655799999997,42.12766499906134],[-122.476309,42.12742899906135],[-122.47610300000002,42.12727599906135],[-122.47587899999998,42.12713299906136],[-122.47560899999998,42.12697099906135],[-122.47527299999997,42.12681699906136],[-122.47303899999997,42.125865999061354],[-122.472058,42.12549399906135],[-122.47188899999998,42.12545599906136],[-122.47137599999999,42.125409999061354],[-122.47129699999998,42.12541499906136],[-122.470983,42.125434999061355],[-122.47068699999998,42.12547999906135],[-122.470529,42.12551999906136],[-122.47040500000001,42.12556899906134],[-122.47008100000001,42.12566399906135],[-122.469811,42.12571399906135],[-122.46938400000002,42.125716999061346],[-122.469262,42.12569499906136],[-122.46910499999998,42.12564099906135],[-122.46900000000001,42.12559699906135],[-122.46889399999999,42.12552199906135],[-122.468742,42.12537399906136],[-122.46863999999998,42.125205999061365],[-122.467716,42.12341599906137],[-122.46760499999999,42.123266999061364],[-122.467407,42.12310699906136],[-122.46720700000004,42.122996999061364],[-122.46701,42.12293299906137],[-122.4668,42.12289099906136],[-122.466585,42.122863999061366],[-122.464365,42.122922999061366],[-122.46287499999998,42.122947999061374],[-122.46252000000001,42.122925999061366],[-122.46234400000002,42.122905999061366],[-122.46216000000001,42.122871999061374],[-122.46190800000001,42.12281099906137],[-122.460375,42.12241999906138],[-122.455793,42.12123199906138],[-122.453844,42.12071299906137],[-122.45309400000004,42.12046899906136],[-122.45293200000003,42.12038899906137],[-122.45276800000002,42.12028399906138],[-122.45268800000001,42.12019999906137],[-122.45236000000001,42.11985199906138],[-122.45224699999997,42.11969199906138],[-122.45207600000003,42.11944799906139],[-122.45183800000001,42.118919999061376],[-122.45108600000003,42.117253999061376],[-122.45055800000003,42.116121999061384],[-122.45044000000003,42.11590099906139],[-122.45032499999998,42.11572599906138],[-122.45011699999999,42.115455999061375],[-122.44973599999999,42.11502799906138],[-122.449383,42.1147419990614],[-122.448819,42.114347999061394],[-122.448251,42.1140479990614],[-122.44771399999999,42.113795999061395],[-122.44732,42.113646999061395],[-122.446861,42.1135249990614],[-122.445113,42.113228999061405],[-122.44486100000003,42.11319299906139],[-122.44452300000002,42.1131359990614],[-122.44438400000003,42.1131279990614],[-122.44423200000001,42.1131369990614],[-122.44394399999999,42.11317499906139],[-122.44369299999998,42.11323699906139],[-122.443513,42.1133059990614],[-122.44322899999999,42.1134629990614],[-122.44306400000002,42.1135739990614],[-122.44289100000002,42.11378099906138],[-122.44280900000001,42.11391099906139],[-122.442648,42.11424699906139],[-122.442532,42.11458299906138],[-122.442486,42.11477999906139],[-122.44243099999998,42.11496199906138],[-122.442346,42.1151239990614],[-122.44222999999998,42.11525299906139],[-122.44203099999999,42.1153659990614],[-122.441988,42.11538299906139],[-122.44183899999999,42.11544099906139],[-122.441637,42.11549599906141],[-122.44147000000001,42.11551399906139],[-122.44133200000005,42.1154979990614],[-122.44121000000001,42.11546999906139],[-122.440993,42.11539899906139],[-122.439589,42.114717999061384],[-122.43921399999999,42.11451499906138],[-122.43844999999999,42.11410099906139],[-122.43791499999999,42.113864999061384],[-122.437448,42.11371799906138],[-122.43666600000002,42.11354599906138],[-122.43631699999999,42.11348399906139],[-122.43593900000002,42.113444999061386],[-122.43549200000002,42.113415999061395],[-122.43480000000001,42.1133989990614],[-122.43426699999999,42.113494999061395],[-122.43365300000004,42.11360499906138],[-122.43338400000002,42.1136439990614],[-122.43315600000003,42.113654999061396],[-122.43261700000004,42.11358399906138],[-122.43229499999998,42.113508999061395],[-122.43217,42.113471999061396],[-122.43202499999998,42.11341799906139],[-122.43174300000001,42.113275999061386],[-122.431578,42.113145999061395],[-122.431278,42.1128699990614],[-122.43007499999999,42.11169799906139],[-122.42974800000002,42.1114489990614],[-122.42939400000002,42.1111789990614],[-122.42920699999999,42.111068999061416],[-122.428804,42.1108899990614],[-122.42822599999998,42.1106409990614],[-122.42801800000002,42.11056599906139],[-122.42775899999998,42.1104869990614],[-122.42723100000003,42.1103559990614],[-122.42711100000002,42.110330999061404],[-122.42694,42.11030799906141],[-122.42664000000002,42.110289999061386],[-122.42432299999999,42.110252999061416],[-122.423214,42.11023999906139],[-122.42232500000003,42.11022999906141],[-122.421945,42.11022599906139],[-122.42168500000004,42.110216999061386],[-122.42153700000001,42.11020299906139],[-122.421244,42.110151999061394],[-122.42065499999998,42.11001099906141],[-122.41807000000001,42.10918799906142],[-122.41651900000002,42.1087189990614],[-122.41584900000002,42.10855999906139],[-122.41555199999999,42.10850499906141],[-122.41527700000005,42.108466999061406],[-122.41510200000002,42.108452999061406],[-122.41486400000001,42.108439999061424],[-122.41465900000001,42.10844299906142],[-122.41436399999998,42.1084579990614],[-122.41402399999998,42.10848799906141],[-122.41361400000001,42.108540999061404],[-122.41316299999998,42.10862299906142],[-122.412402,42.10882699906141],[-122.412033,42.10895799906142],[-122.41183199999999,42.109045999061394],[-122.410702,42.109751999061416],[-122.41042300000001,42.1098869990614],[-122.410267,42.1099479990614],[-122.410096,42.1099959990614],[-122.40992099999998,42.110027999061394],[-122.40958500000004,42.1100559990614],[-122.40930699999997,42.1100379990614],[-122.40913799999997,42.11000899906139],[-122.40904600000002,42.10999299906141],[-122.408841,42.109922999061396],[-122.408385,42.1097429990614],[-122.406172,42.108922999061406],[-122.405805,42.10882699906141],[-122.405431,42.108749999061416],[-122.40502500000002,42.108675999061404],[-122.40479199999999,42.10864399906141],[-122.40414600000003,42.108604999061406],[-122.40380699999999,42.1086009990614],[-122.40276000000004,42.10868499906142],[-122.40165800000001,42.10883699906142],[-122.40063200000003,42.1089789990614],[-122.39595700000001,42.1096089990614],[-122.39470500000003,42.10977399906143],[-122.392259,42.11016799906141],[-122.391166,42.11039599906141],[-122.38412399999999,42.112429999061405],[-122.377781,42.11429899906139],[-122.37741200000002,42.11443099906138],[-122.377363,42.11444899906139],[-122.377075,42.11459199906139],[-122.37686000000002,42.11474199906139],[-122.37672500000002,42.114860999061385],[-122.37663400000002,42.114975999061386],[-122.376526,42.11513999906138],[-122.37583300000006,42.11668399906138],[-122.37581400000006,42.11672699906138],[-122.375638,42.11698599906138],[-122.37536800000002,42.11724799906138],[-122.375246,42.117365999061384],[-122.37499900000002,42.11755699906138],[-122.37459,42.11771699906137],[-122.37431400000003,42.11778899906139],[-122.37322999999999,42.11791099906137],[-122.37178300000002,42.11788699906138],[-122.37025700000005,42.11778899906139],[-122.37016200000001,42.11777799906138],[-122.37008100000001,42.11775199906138],[-122.369533,42.11753399906137],[-122.36936099999998,42.11748399906138],[-122.36910199999998,42.11743299906138],[-122.36881600000002,42.11739299906137],[-122.36855600000001,42.11736999906138],[-122.36824563616089,42.1173579072735]],[[-122.36653873912684,42.11777953639512],[-122.36635500000001,42.11788799906138],[-122.36618100000001,42.11803699906139],[-122.366129,42.11810799906136],[-122.36595800000002,42.11833999906138],[-122.36580800000003,42.11863499906137],[-122.36559199999999,42.11929499906138],[-122.36554500000004,42.119414999061384],[-122.36547200000001,42.11952599906138],[-122.365323,42.119709999061364],[-122.36386600000002,42.12121999906137],[-122.36365599999998,42.121382999061375],[-122.363456,42.121482999061364],[-122.359658,42.122782999061364],[-122.35942279238878,42.12284734603928]],[[-122.35189610044368,42.12488784976092],[-122.35180199999999,42.12488299906135],[-122.35138899999997,42.12482999906136],[-122.35103400000001,42.12478899906135],[-122.350849,42.124758999061356],[-122.35069200000001,42.12474099906135],[-122.34942100000002,42.12461899906136],[-122.34916900000002,42.12458299906136],[-122.348966,42.12454599906135],[-122.348924,42.12454599906135],[-122.34892170497871,42.124545827092255]],[[-122.3562176103182,42.122367438484446],[-122.35620100000004,42.12236299906135],[-122.35581100000002,42.12232599906137],[-122.35553800000004,42.122332999061356],[-122.35543087299538,42.122343711792126]],[[-122.35378899137572,42.12408468995491],[-122.35377399999999,42.12416399906136],[-122.35374,42.12423399906135],[-122.353682,42.12428599906136],[-122.3536780583006,42.12428859570002]],[[-122.35857353154059,42.122998633498725],[-122.35856300000002,42.12299799906137],[-122.35820000000002,42.122962999061365],[-122.35780681005244,42.12284567476462]],[[-122.35892192610002,42.122984368616756],[-122.35890500000005,42.122988999061356],[-122.35889621859315,42.12298994706079]],[[-122.35884786974523,42.12299516656277],[-122.35872900000001,42.12300799906135],[-122.3587101717449,42.1230068648413]],[[-122.36671860444119,42.11769858933432],[-122.36671642414062,42.11769947371358]]]},"id":"003c0000000000000a23","properties":{"fullname":"Green Springs Hwy","linearid":"1105045766867","mtfcc":"S1200","rttyp":"M"}},{"type":"Feature","geometry":{"type":"LineString","coordinates":[[-122.60778991266668,42.05990054167559],[-122.60965899999998,42.05729899906158],[-122.61009900000002,42.05646099906158],[-122.61015700000004,42.05631099906157],[-122.61022400000003,42.05611399906159],[-122.610378,42.05532899906159],[-122.61045,42.05445299906158],[-122.61047300000007,42.05405899906159],[-122.61042400000001,42.05342699906158],[-122.61038,42.05322399906159],[-122.6103,42.05300799906159],[-122.610194,42.052755999061596],[-122.61004199999999,42.05250399906157],[-122.60989500000002,42.05231499906159],[-122.60964099999998,42.05202199906161],[-122.60948900000005,42.05186999906161],[-122.609252,42.0516599990616],[-122.60847500000001,42.05103199906158],[-122.60785899999999,42.05045799906161],[-122.607669,42.050267999061596],[-122.60751,42.0500639990616],[-122.60731899999999,42.0497569990616],[-122.60714299999998,42.0493509990616],[-122.607115,42.04927599906159],[-122.60643700000001,42.04749599906161],[-122.60616700000001,42.04678899906161],[-122.605853,42.046136999061616],[-122.60569500000001,42.045849999061616],[-122.60552900000002,42.04561499906161],[-122.60521100000003,42.04524699906162],[-122.604927,42.044968999061616],[-122.604466,42.04460499906161],[-122.60403799999999,42.04424199906162],[-122.603394,42.04373199906162],[-122.59987900000002,42.04108099906163],[-122.59955699999999,42.04078399906163],[-122.59942799999999,42.040655999061634],[-122.599292,42.04046499906162],[-122.599169,42.04023199906164],[-122.599027,42.03998799906164],[-122.59894600000001,42.03978599906163],[-122.59889999999999,42.039559999061645],[-122.59885800000005,42.039231999061634],[-122.59887200000003,42.03911199906163],[-122.598917,42.038706999061645],[-122.59897800000003,42.03852799906165],[-122.59902900000002,42.03840699906165],[-122.59914400000004,42.03823599906164],[-122.59960300000004,42.03765099906165],[-122.59995099999999,42.03729099906164],[-122.60148200000002,42.03589499906165],[-122.602103,42.035368999061646],[-122.602257,42.035193999061654],[-122.60241599999999,42.03497399906165],[-122.602535,42.03478899906165],[-122.60262699999998,42.03459699906166],[-122.60297200000001,42.03381799906167],[-122.60439500000001,42.02940799906167],[-122.60563100000006,42.02549599906169],[-122.60615,42.02407399906169],[-122.606362,42.02363999906169],[-122.606639,42.023160999061695],[-122.60666199999999,42.0231339990617],[-122.60702800000001,42.02270099906169],[-122.607159,42.022569999061695],[-122.607324,42.022392999061694],[-122.610507,42.019421999061706],[-122.61150800000001,42.018486999061714],[-122.61154100000002,42.018456999061705],[-122.61189799999998,42.01813699906171],[-122.61236899999999,42.01771499906171],[-122.61259500000001,42.01751199906171],[-122.61318099999997,42.016917999061704],[-122.61361200000005,42.01639199906171],[-122.61377300000001,42.016160999061704],[-122.61394200000002,42.015917999061706],[-122.61407200000002,42.01566399906172],[-122.61425600000001,42.01519599906172],[-122.61433600000001,42.014987999061724],[-122.61438200000003,42.014806999061726],[-122.61445600000002,42.01456199906172],[-122.615333,42.010291999061714],[-122.61594699999999,42.00712399906174],[-122.61597200000001,42.00686399906174],[-122.615945,42.006516999061745],[-122.61584500000004,42.005889999061765],[-122.61569899999999,42.00545499906174],[-122.61569200000002,42.00544099906174]]},"id":"003c00000000000007b8","properties":{"fullname":"State Hwy 99","linearid":"110340469647","mtfcc":"S1100","rttyp":"S"}},{"type":"Feature","geometry":{"type":"LineString","coordinates":[[-122.61533900000002,42.005452999061745],[-122.61535599999999,42.00548199906175],[-122.61554199999999,42.00584799906174],[-122.61561799999998,42.00605699906174],[-122.61567500000001,42.006282999061746],[-122.61571300000003,42.00654999906174],[-122.615728,42.00687799906175],[-122.61570800000001,42.00711999906174],[-122.61505000000002,42.010311999061734],[-122.614314,42.01368999906171],[-122.61401799999999,42.01461499906171],[-122.61393000000002,42.01484599906172],[-122.61386000000006,42.01499999906172],[-122.61366000000002,42.01536499906172],[-122.613164,42.016023999061716],[-122.612963,42.016229999061714],[-122.61171799999995,42.01738399906171],[-122.61112299999999,42.01793799906172],[-122.61081700000001,42.018221999061694],[-122.610609,42.01841299906171],[-122.610495,42.01851799906171],[-122.609768,42.0191829990617],[-122.60822600000002,42.020596999061695],[-122.60656700000004,42.02219699906169],[-122.606259,42.022555999061694],[-122.606053,42.022857999061685],[-122.60597200000001,42.023014999061694],[-122.60581299999997,42.023319999061705],[-122.605553,42.02395399906169],[-122.60507899999999,42.025410999061684],[-122.60249999999999,42.033474999061646],[-122.602212,42.034032999061665],[-122.601929,42.034481999061654],[-122.601734,42.03475999906166],[-122.60161399999998,42.034906999061654],[-122.60152100000005,42.03500499906166],[-122.60070999999996,42.03575699906166],[-122.59910699999999,42.037130999061645],[-122.59862499999998,42.03755199906164],[-122.598479,42.03771799906165],[-122.59827300000002,42.03799099906165],[-122.59810899999998,42.03825499906164],[-122.598017,42.03841499906165],[-122.59791500000003,42.03868599906164],[-122.59785800000002,42.03907299906164],[-122.597843,42.03926899906165],[-122.597843,42.03946099906164],[-122.59786900000006,42.03963699906165],[-122.597962,42.03993899906163],[-122.59798900000003,42.040058999061635],[-122.598055,42.04022299906165],[-122.59820700000002,42.04047899906163],[-122.59830299999999,42.040607999061635],[-122.59842399999998,42.04074699906163],[-122.59855300000001,42.04087499906162],[-122.59871300000003,42.04100799906163],[-122.60334499999998,42.04452299906161],[-122.60433199999999,42.045260999061625],[-122.60455799999998,42.04545499906161],[-122.604702,42.04559199906163],[-122.604831,42.04574599906162],[-122.60501099999998,42.046000999061626],[-122.60516300000005,42.04626699906162],[-122.605811,42.047898999061616],[-122.606324,42.049294999061615],[-122.60647500000002,42.049672999061606],[-122.60660799999998,42.04993899906161],[-122.606759,42.0501469990616],[-122.606922,42.05034799906159],[-122.60722600000001,42.0506719990616],[-122.607502,42.05093599906159],[-122.60775400000003,42.05113699906159],[-122.60873300000002,42.051874999061596],[-122.60933999999999,42.05243099906159],[-122.60965899999998,42.052809999061594],[-122.609786,42.0530179990616],[-122.60985099999998,42.05315099906158],[-122.60987800000001,42.0532629990616],[-122.60997700000001,42.05357499906159],[-122.61002500000004,42.053784999061584],[-122.61006000000005,42.05399499906159],[-122.61006699999999,42.054632999061596],[-122.60996600000003,42.05581899906158],[-122.609927,42.05607799906157],[-122.609883,42.05625799906157],[-122.60969200000001,42.05682099906158],[-122.60959400000003,42.057041999061575],[-122.60948400000005,42.05723599906159],[-122.60802500000001,42.05928399906157],[-122.60764186936474,42.05983005035781]]},"id":"003c00000000000007b9","properties":{"fullname":"State Hwy 99","linearid":"110340469648","mtfcc":"S1100","rttyp":"S"}},{"type":"Feature","geometry":{"type":"MultiLineString","coordinates":[[[-122.36824563616089,42.1173579072735],[-122.36855600000001,42.11736999906138],[-122.36881600000002,42.11739299906137],[-122.36910199999998,42.11743299906138],[-122.36936099999998,42.11748399906138],[-122.369533,42.11753399906137],[-122.37008100000001,42.11775199906138],[-122.37016200000001,42.11777799906138],[-122.37025700000005,42.11778899906139],[-122.37178300000002,42.11788699906138],[-122.37322999999999,42.11791099906137],[-122.37431400000003,42.11778899906139],[-122.37459,42.11771699906137],[-122.37499900000002,42.11755699906138],[-122.375246,42.117365999061384],[-122.37536800000002,42.11724799906138],[-122.375638,42.11698599906138],[-122.37581400000006,42.11672699906138],[-122.37583300000006,42.11668399906138],[-122.376526,42.11513999906138],[-122.37663400000002,42.114975999061386],[-122.37672500000002,42.114860999061385],[-122.37686000000002,42.11474199906139],[-122.377075,42.11459199906139],[-122.377363,42.11444899906139],[-122.37741200000002,42.11443099906138],[-122.377781,42.11429899906139],[-122.38412399999999,42.112429999061405],[-122.391166,42.11039599906141],[-122.392259,42.11016799906141],[-122.39470500000003,42.10977399906143],[-122.39595700000001,42.1096089990614],[-122.40063200000003,42.1089789990614],[-122.40165800000001,42.10883699906142],[-122.40276000000004,42.10868499906142],[-122.40380699999999,42.1086009990614],[-122.40414600000003,42.108604999061406],[-122.40479199999999,42.10864399906141],[-122.40502500000002,42.108675999061404],[-122.405431,42.108749999061416],[-122.405805,42.10882699906141],[-122.406172,42.108922999061406],[-122.408385,42.1097429990614],[-122.408841,42.109922999061396],[-122.40904600000002,42.10999299906141],[-122.40913799999997,42.11000899906139],[-122.40930699999997,42.1100379990614],[-122.40958500000004,42.1100559990614],[-122.40992099999998,42.110027999061394],[-122.410096,42.1099959990614],[-122.410267,42.1099479990614],[-122.41042300000001,42.1098869990614],[-122.410702,42.109751999061416],[-122.41183199999999,42.109045999061394],[-122.412033,42.10895799906142],[-122.412402,42.10882699906141],[-122.41316299999998,42.10862299906142],[-122.41361400000001,42.108540999061404],[-122.41402399999998,42.10848799906141],[-122.41436399999998,42.1084579990614],[-122.41465900000001,42.10844299906142],[-122.41486400000001,42.108439999061424],[-122.41510200000002,42.108452999061406],[-122.41527700000005,42.108466999061406],[-122.41555199999999,42.10850499906141],[-122.41584900000002,42.10855999906139],[-122.41651900000002,42.1087189990614],[-122.41807000000001,42.10918799906142],[-122.42065499999998,42.11001099906141],[-122.421244,42.110151999061394],[-122.42153700000001,42.11020299906139],[-122.42168500000004,42.110216999061386],[-122.421945,42.11022599906139],[-122.42232500000003,42.11022999906141],[-122.423214,42.11023999906139],[-122.42432299999999,42.110252999061416],[-122.42664000000002,42.110289999061386],[-122.42694,42.11030799906141],[-122.42711100000002,42.110330999061404],[-122.42723100000003,42.1103559990614],[-122.42775899999998,42.1104869990614],[-122.42801800000002,42.11056599906139],[-122.42822599999998,42.1106409990614],[-122.428804,42.1108899990614],[-122.42920699999999,42.111068999061416],[-122.42939400000002,42.1111789990614],[-122.42974800000002,42.1114489990614],[-122.43007499999999,42.11169799906139],[-122.431278,42.1128699990614],[-122.431578,42.113145999061395],[-122.43174300000001,42.113275999061386],[-122.43202499999998,42.11341799906139],[-122.43217,42.113471999061396],[-122.43229499999998,42.113508999061395],[-122.43261700000004,42.11358399906138],[-122.43315600000003,42.113654999061396],[-122.43338400000002,42.1136439990614],[-122.43365300000004,42.11360499906138],[-122.43426699999999,42.113494999061395],[-122.43480000000001,42.1133989990614],[-122.43549200000002,42.113415999061395],[-122.43593900000002,42.113444999061386],[-122.43631699999999,42.11348399906139],[-122.43666600000002,42.11354599906138],[-122.437448,42.11371799906138],[-122.43791499999999,42.113864999061384],[-122.43844999999999,42.11410099906139],[-122.43921399999999,42.11451499906138],[-122.439589,42.114717999061384],[-122.440993,42.11539899906139],[-122.44121000000001,42.11546999906139],[-122.44133200000005,42.1154979990614],[-122.44147000000001,42.11551399906139],[-122.441637,42.11549599906141],[-122.44183899999999,42.11544099906139],[-122.441988,42.11538299906139],[-122.44203099999999,42.1153659990614],[-122.44222999999998,42.11525299906139],[-122.442346,42.1151239990614],[-122.44243099999998,42.11496199906138],[-122.442486,42.11477999906139],[-122.442532,42.11458299906138],[-122.442648,42.11424699906139],[-122.44280900000001,42.11391099906139],[-122.44289100000002,42.11378099906138],[-122.44306400000002,42.1135739990614],[-122.44322899999999,42.1134629990614],[-122.443513,42.1133059990614],[-122.44369299999998,42.11323699906139],[-122.44394399999999,42.11317499906139],[-122.44423200000001,42.1131369990614],[-122.44438400000003,42.1131279990614],[-122.44452300000002,42.1131359990614],[-122.44486100000003,42.11319299906139],[-122.445113,42.113228999061405],[-122.446861,42.1135249990614],[-122.44732,42.113646999061395],[-122.44771399999999,42.113795999061395],[-122.448251,42.1140479990614],[-122.448819,42.114347999061394],[-122.449383,42.1147419990614],[-122.44973599999999,42.11502799906138],[-122.45011699999999,42.115455999061375],[-122.45032499999998,42.11572599906138],[-122.45044000000003,42.11590099906139],[-122.45055800000003,42.116121999061384],[-122.45108600000003,42.117253999061376],[-122.45183800000001,42.118919999061376],[-122.45207600000003,42.11944799906139],[-122.45224699999997,42.11969199906138],[-122.45236000000001,42.11985199906138],[-122.45268800000001,42.12019999906137],[-122.45276800000002,42.12028399906138],[-122.45293200000003,42.12038899906137],[-122.45309400000004,42.12046899906136],[-122.453844,42.12071299906137],[-122.455793,42.12123199906138],[-122.460375,42.12241999906138],[-122.46190800000001,42.12281099906137],[-122.46216000000001,42.122871999061374],[-122.46234400000002,42.122905999061366],[-122.46252000000001,42.122925999061366],[-122.46287499999998,42.122947999061374],[-122.464365,42.122922999061366],[-122.466585,42.122863999061366],[-122.4668,42.12289099906136],[-122.46701,42.12293299906137],[-122.46720700000004,42.122996999061364],[-122.467407,42.12310699906136],[-122.46760499999999,42.123266999061364],[-122.467716,42.12341599906137],[-122.46863999999998,42.125205999061365],[-122.468742,42.12537399906136],[-122.46889399999999,42.12552199906135],[-122.46900000000001,42.12559699906135],[-122.46910499999998,42.12564099906135],[-122.469262,42.12569499906136],[-122.46938400000002,42.125716999061346],[-122.469811,42.12571399906135],[-122.47008100000001,42.12566399906135],[-122.47040500000001,42.12556899906134],[-122.470529,42.12551999906136],[-122.47068699999998,42.12547999906135],[-122.470983,42.125434999061355],[-122.47129699999998,42.12541499906136],[-122.47137599999999,42.125409999061354],[-122.47188899999998,42.12545599906136],[-122.472058,42.12549399906135],[-122.47303899999997,42.125865999061354],[-122.47527299999997,42.12681699906136],[-122.47560899999998,42.12697099906135],[-122.47587899999998,42.12713299906136],[-122.47610300000002,42.12727599906135],[-122.476309,42.12742899906135],[-122.47655799999997,42.12766499906134],[-122.476828,42.12798699906135],[-122.47695400000003,42.128258999061345],[-122.47714200000001,42.12884499906134],[-122.47720199999999,42.12912199906135],[-122.477192,42.12927399906134],[-122.477164,42.12938399906134],[-122.477125,42.129578999061344],[-122.47712199999998,42.12990899906134],[-122.477158,42.130065999061344],[-122.47737900000001,42.130696999061335],[-122.47741299999998,42.13087399906134],[-122.47740599999996,42.131076999061335],[-122.47725699999998,42.13165599906134],[-122.47716000000001,42.132098999061334],[-122.47708300000001,42.13233999906134],[-122.47698299999999,42.13257899906133],[-122.476915,42.13269299906133],[-122.476759,42.132921999061324],[-122.476339,42.133401999061334],[-122.47627700000002,42.133467999061324],[-122.476243,42.133544999061336],[-122.47623200000002,42.13362899906132],[-122.476252,42.13369499906132],[-122.47636900000003,42.13392999906133],[-122.47681399999996,42.13445199906133],[-122.47691700000001,42.13452599906134],[-122.47704200000003,42.13456599906132],[-122.47713599999999,42.13457599906132],[-122.477216,42.13456499906133],[-122.47736700000002,42.13452699906133],[-122.47739499999999,42.13451499906133],[-122.47742800000002,42.13449299906132],[-122.47746299999999,42.134449999061324],[-122.477493,42.13438099906133],[-122.47749500000006,42.13430199906132],[-122.477415,42.13406699906132],[-122.47738500000003,42.13376999906133],[-122.47741600000002,42.133711999061326],[-122.47746299999999,42.13366299906133],[-122.477573,42.13358599906134],[-122.47771300000001,42.13351599906133],[-122.47830600000003,42.13324799906134],[-122.478513,42.13306599906133],[-122.478591,42.13295699906133],[-122.47895000000004,42.13214099906134],[-122.47938099999999,42.13146899906133],[-122.47951399999998,42.13131499906134],[-122.4796,42.131244999061344],[-122.479772,42.13117299906134],[-122.47993499999998,42.13112799906135],[-122.48010299999999,42.131052999061346],[-122.480273,42.13096099906135],[-122.48047500000001,42.130837999061335],[-122.48076599999999,42.13069499906134],[-122.481762,42.130306999061325],[-122.48191700000001,42.130257999061335],[-122.482173,42.13019899906132],[-122.482687,42.13010199906134],[-122.48290099999998,42.130067999061346],[-122.483019,42.13004999906133],[-122.48310400000003,42.13004199906133],[-122.483281,42.130038999061334],[-122.483451,42.130068999061336],[-122.483632,42.13015899906133],[-122.48376799999998,42.130263999061334],[-122.48384000000003,42.130377999061345],[-122.483884,42.13048499906134],[-122.48395099999999,42.13088899906134],[-122.484012,42.13108599906133],[-122.484067,42.13116299906134],[-122.484142,42.131239999061336],[-122.484271,42.13135299906132],[-122.48451300000002,42.131565999061344],[-122.48472600000002,42.131709999061336],[-122.48613200000001,42.132537999061334],[-122.48624600000001,42.132583999061346],[-122.48638,42.13260299906133],[-122.486598,42.13261399906132],[-122.48678900000002,42.13264299906133],[-122.48697100000003,42.13268899906133],[-122.488393,42.13312299906133],[-122.48859000000003,42.133208999061324],[-122.48891900000001,42.13342199906133],[-122.489033,42.133467999061324],[-122.48922000000003,42.133500999061326],[-122.48931700000001,42.13349299906133],[-122.489409,42.13347699906134],[-122.48951900000002,42.13343499906132],[-122.48980600000002,42.13331199906133],[-122.49011100000003,42.133239999061345],[-122.490389,42.13323099906133],[-122.490649,42.13324899906134],[-122.49094,42.13330899906133],[-122.49115199999999,42.133373999061334],[-122.49156200000003,42.133582999061325],[-122.49182700000001,42.133686999061325],[-122.491958,42.13372899906132],[-122.492132,42.13375299906133],[-122.492321,42.13372899906132],[-122.49244300000001,42.13367699906132],[-122.49274400000003,42.13350099906133],[-122.492873,42.13344299906133],[-122.493036,42.133405999061324],[-122.49325899999998,42.133393999061326],[-122.49339,42.13340499906132],[-122.49390000000001,42.13351699906133],[-122.493993,42.13352799906133],[-122.49409700000001,42.13351399906132],[-122.49425700000003,42.13347199906133],[-122.494353,42.13342199906133],[-122.49441900000001,42.13334599906132],[-122.494437,42.13324699906133],[-122.494455,42.13299699906132],[-122.49452999999998,42.13192899906134],[-122.49453500000001,42.13186499906133],[-122.49456300000001,42.13179999906133],[-122.49472,42.131655999061316],[-122.49485899999999,42.131592999061326],[-122.495462,42.131396999061316],[-122.49559000000004,42.13136799906133],[-122.49575500000005,42.13135299906132],[-122.495916,42.13134399906133],[-122.49601300000005,42.131347999061326],[-122.49612200000003,42.13136399906133],[-122.49629300000004,42.131414999061334],[-122.49666499999998,42.13160799906132],[-122.49704599999995,42.13188599906133],[-122.497173,42.13193399906134],[-122.497335,42.13195499906132],[-122.49742699999999,42.131947999061346],[-122.497507,42.13191699906134],[-122.49761000000002,42.13185699906132],[-122.49764900000001,42.13181499906133],[-122.49766700000002,42.13175399906134],[-122.49765199999999,42.13166699906134],[-122.497609,42.131565999061316],[-122.49753,42.13142499906134],[-122.49745600000003,42.13131399906134],[-122.49734000000001,42.13121299906133],[-122.496927,42.130923999061345],[-122.49647200000001,42.13048799906132],[-122.49635200000002,42.13035699906133],[-122.49630099999999,42.130282999061336],[-122.49624099999998,42.13017599906133],[-122.49619200000002,42.130023999061336],[-122.49612700000004,42.129769999061345],[-122.49614000000001,42.12965899906133],[-122.49620200000001,42.12954799906132],[-122.496365,42.12936599906133],[-122.49651700000001,42.12921599906134],[-122.49668700000002,42.129100999061336],[-122.49680700000003,42.12906699906133],[-122.49695500000001,42.12905899906135],[-122.498388,42.12918299906134],[-122.49882000000002,42.12920299906134],[-122.49903800000003,42.12918399906135],[-122.49919700000002,42.129135999061354],[-122.49936099999998,42.12904399906135],[-122.50014100000004,42.12848799906134],[-122.501092,42.12793699906134],[-122.501618,42.12768699906134],[-122.50257100000003,42.12720599906136],[-122.50394900000003,42.12662999906134],[-122.50411200000002,42.126516999061344],[-122.504225,42.126366999061354],[-122.504322,42.12607199906135],[-122.50469300000002,42.125151999061345],[-122.504775,42.12499199906135],[-122.504865,42.12483199906135],[-122.50518600000001,42.12436099906136],[-122.50554500000001,42.123844999061355],[-122.505796,42.12364499906136],[-122.50596400000003,42.12356999906135],[-122.50617000000001,42.123532999061354],[-122.506544,42.12356999906135],[-122.50688100000002,42.12364499906137],[-122.50754,42.12376499906136],[-122.50867699999999,42.12403799906135],[-122.50897600000003,42.12405599906136],[-122.50931299999999,42.12407499906135],[-122.50966800000002,42.12413099906136],[-122.509967,42.12420599906136],[-122.510117,42.124280999061355],[-122.510465,42.12454699906136],[-122.51080900000004,42.124878999061345],[-122.51107100000004,42.125028999061364],[-122.511351,42.12512299906136],[-122.51172499999998,42.12534699906135],[-122.51202500000001,42.125421999061366],[-122.512567,42.12534699906135],[-122.51299700000001,42.12530999906134],[-122.513222,42.12525299906137],[-122.51350199999999,42.12508499906136],[-122.51374500000001,42.12487899906135],[-122.51413800000005,42.12469199906136],[-122.51464300000002,42.12452399906136],[-122.51486800000002,42.12448699906135],[-122.515242,42.12446599906135],[-122.515756,42.12444799906137],[-122.516418,42.12437799906136],[-122.51680699999999,42.12443999906134],[-122.51704800000002,42.124533999061356],[-122.51727900000002,42.12464899906136],[-122.51743700000003,42.12478599906136],[-122.51752,42.12490099906137],[-122.51764600000001,42.12517399906135],[-122.51773,42.12540499906136],[-122.51782500000002,42.125634999061354],[-122.51796099999999,42.125834999061354],[-122.518118,42.12604399906135],[-122.518286,42.12624399906134],[-122.518569,42.12639099906135],[-122.518926,42.12653699906135],[-122.51914599999999,42.12659999906136],[-122.51935600000002,42.12659999906136],[-122.51963900000004,42.12662099906135],[-122.51995400000004,42.12670499906136],[-122.52051999999998,42.12691499906135],[-122.52097000000003,42.127045999061345],[-122.521502,42.12725899906135],[-122.52168400000001,42.12740799906135],[-122.52187299999999,42.127596999061346],[-122.52231400000001,42.127827999061346],[-122.52267000000003,42.127942999061354],[-122.522985,42.12801599906133],[-122.523321,42.12804799906133],[-122.52363500000001,42.12808999906135],[-122.52394000000007,42.12822599906134],[-122.52422300000005,42.12838299906134],[-122.52446400000001,42.128477999061346],[-122.52474700000003,42.12850899906135],[-122.52496699999999,42.128498999061335],[-122.52559700000003,42.12833099906134],[-122.52584900000001,42.128173999061346],[-122.526141,42.12787899906135],[-122.526446,42.12766899906135],[-122.52671899999999,42.12745999906134],[-122.52681400000003,42.12727199906134],[-122.52685500000001,42.12710399906135],[-122.52684500000001,42.126987999061356],[-122.52678400000002,42.12685599906135],[-122.52658000000002,42.12641799906135],[-122.52652600000002,42.12622299906135],[-122.52653100000003,42.12612899906135],[-122.526587,42.12591799906134],[-122.526727,42.12560299906134],[-122.526774,42.12545099906134],[-122.52682,42.125334999061344],[-122.52682899999999,42.12522999906136],[-122.52687900000001,42.12491399906135],[-122.52697200000004,42.12473499906136],[-122.52712400000004,42.12458299906136],[-122.52727600000003,42.124469999061354],[-122.527486,42.12438799906137],[-122.52759100000003,42.12435299906135],[-122.527696,42.12429499906136],[-122.52775499999998,42.124235999061355],[-122.527802,42.124165999061354],[-122.527813,42.12393299906136],[-122.52775500000001,42.123616999061355],[-122.52776700000001,42.12333699906135],[-122.52786,42.123196999061356],[-122.52798599999998,42.12310799906137],[-122.52812700000001,42.12303399906136],[-122.528714,42.122850999061356],[-122.52918000000003,42.122764999061374],[-122.52940200000003,42.12274899906136],[-122.52965900000001,42.12279599906137],[-122.530068,42.122947999061374],[-122.53053500000001,42.123110999061375],[-122.53078000000002,42.12321599906135],[-122.531014,42.12333299906137],[-122.531119,42.12337999906135],[-122.53127100000002,42.123391999061376],[-122.531516,42.12337999906135],[-122.53194899999998,42.12337999906135],[-122.53232200000001,42.12342699906136],[-122.532533,42.123496999061366],[-122.53266100000002,42.12355899906137],[-122.53281299999996,42.12362899906137],[-122.53297700000006,42.12373399906136],[-122.53328,42.12397899906135],[-122.53350200000001,42.124224999061354],[-122.53398800000001,42.12484899906135],[-122.534088,42.12495499906134],[-122.53432,42.125161999061355],[-122.53492399999999,42.12548699906134],[-122.53523300000002,42.12562199906133],[-122.53558,42.12570899906136],[-122.53587100000004,42.12578299906135],[-122.53624200000002,42.12590399906135],[-122.536865,42.12625599906136],[-122.537087,42.12640299906135],[-122.53737999999998,42.12652199906136],[-122.53762900000002,42.12659799906135],[-122.53784599999999,42.126651999061345],[-122.538041,42.12671699906134],[-122.53819300000002,42.12677199906134],[-122.53830799999999,42.12684599906136],[-122.53835800000003,42.12690799906136],[-122.538397,42.126975999061344],[-122.53841600000005,42.12705099906136],[-122.538426,42.127145999061355],[-122.53840400000001,42.12732699906137],[-122.53835600000002,42.12744199906134],[-122.53822000000005,42.12761599906134],[-122.537811,42.12797499906133],[-122.53770799999998,42.128107999061335],[-122.53764699999999,42.12826299906134],[-122.53760600000007,42.12840699906135],[-122.53755000000002,42.128957999061335],[-122.53750100000003,42.12906399906134],[-122.53743999999999,42.12913799906135],[-122.53722900000002,42.12930199906134],[-122.53681399999998,42.12951999906132],[-122.53644,42.12983099906133],[-122.53634300000003,42.12988099906133],[-122.53627100000006,42.129917999061334],[-122.53615500000005,42.12995099906134],[-122.536067,42.12996699906134],[-122.53594199999999,42.129979999061334],[-122.53507199999997,42.13002099906134],[-122.53501199999998,42.13002799906135],[-122.53494,42.13005599906134],[-122.534869,42.13009399906135],[-122.53483700000002,42.13013699906133],[-122.534773,42.13023899906133],[-122.534751,42.13032699906133],[-122.534721,42.13050099906134],[-122.53477699999999,42.13125699906133],[-122.53476200000001,42.13140199906133],[-122.534695,42.131549999061335],[-122.534542,42.131822999061335],[-122.53436300000001,42.132038999061336],[-122.53421399999998,42.132143999061334],[-122.53403399999998,42.13222899906134],[-122.53387499999997,42.132284999061326],[-122.533704,42.13231099906133],[-122.53334699999999,42.132345999061336],[-122.53325699999999,42.132374999061334],[-122.53319799999998,42.13241499906133],[-122.53313199999998,42.13251199906133],[-122.53310500000002,42.13261399906132],[-122.53309200000002,42.13277999906132],[-122.53308100000001,42.13302299906134],[-122.53305200000001,42.13315299906134],[-122.532759,42.13371499906131],[-122.53274099999999,42.133866999061325],[-122.53276400000003,42.13395099906133],[-122.532809,42.13401899906132],[-122.53282300000001,42.13403999906132],[-122.53304100000005,42.13417399906133],[-122.53313799999998,42.13419899906133],[-122.533692,42.13420299906133],[-122.533877,42.13419199906133],[-122.53398500000002,42.134165999061324],[-122.534104,42.13410999906133],[-122.534211,42.13403599906132],[-122.53435400000001,42.13396699906132],[-122.534753,42.133862999061336],[-122.53491799999999,42.13383099906133],[-122.53507099999999,42.13381299906133],[-122.53531699999999,42.13381799906132],[-122.535499,42.13384099906133],[-122.53566599999998,42.13389199906132],[-122.53579200000001,42.13394699906133],[-122.53594500000001,42.13403099906133],[-122.536105,42.134097999061325],[-122.53622200000004,42.13412199906132],[-122.53658300000001,42.13416399906133],[-122.53682100000003,42.134167999061326],[-122.53716100000001,42.13418999906132],[-122.537405,42.13421199906133],[-122.53821200000002,42.13433799906132],[-122.53841199999997,42.13434999906133],[-122.538577,42.13433899906132],[-122.538737,42.13430699906133],[-122.53984799999999,42.13387999906133],[-122.539965,42.13383199906133],[-122.540093,42.13380899906133],[-122.54030199999998,42.13379299906132],[-122.54072600000003,42.13380599906133],[-122.54085500000001,42.13379499906133],[-122.54097699999998,42.13376399906133],[-122.54109299999998,42.13367999906133],[-122.541345,42.133401999061334],[-122.54173700000001,42.132957999061325],[-122.54183000000002,42.132891999061336],[-122.54199,42.13284999906134],[-122.54282699999997,42.13275599906134],[-122.542897,42.13273399906134],[-122.542921,42.13272199906134],[-122.54295599999999,42.132684999061325],[-122.54302799999998,42.13253399906134],[-122.54301299999999,42.13243499906134],[-122.54296600000004,42.13234199906134],[-122.54269199999999,42.131977999061334],[-122.542655,42.131870999061334],[-122.54264099999999,42.13181099906133],[-122.542648,42.13173399906133],[-122.54266500000001,42.13166999906132],[-122.54277599999999,42.131502999061325],[-122.54286900000001,42.13143099906134],[-122.54321699999998,42.13129599906133],[-122.54366500000002,42.13116199906134],[-122.544948,42.130875999061345],[-122.545143,42.13084399906135],[-122.54546599999999,42.130741999061335],[-122.54561199999999,42.130672999061346],[-122.54683,42.129896999061344],[-122.546973,42.12984099906134],[-122.54714499999997,42.12980999906135],[-122.54747699999999,42.12980799906134],[-122.54759,42.129823999061344],[-122.548049,42.12991399906134],[-122.54843199999999,42.13002299906134],[-122.548575,42.130087999061345],[-122.54866999999999,42.13014599906134],[-122.54871100000003,42.130187999061334],[-122.54910100000002,42.130717999061346],[-122.54934100000003,42.130985999061345],[-122.54947,42.13105999906134],[-122.54960099999998,42.13108999906135],[-122.54991799999999,42.13113699906135],[-122.55007499999998,42.13118099906133],[-122.550217,42.13123199906134],[-122.55038699999999,42.13132399906135],[-122.55046899999995,42.13138399906133],[-122.55056700000002,42.13148299906133],[-122.550679,42.131631999061334],[-122.55070899999998,42.131711999061324],[-122.550764,42.13198599906134],[-122.55082999999999,42.13212999906133],[-122.55088300000001,42.13218999906134],[-122.550968,42.132244999061335],[-122.55149800000001,42.132416999061334],[-122.55167499999999,42.13248499906134],[-122.55180799999998,42.13256599906132],[-122.55275000000005,42.133428999061344],[-122.55293600000002,42.13353299906133],[-122.55302600000002,42.13356699906133],[-122.55312199999999,42.13360399906132],[-122.55332299999999,42.13364099906133],[-122.553526,42.133650999061324],[-122.553706,42.13364299906133],[-122.553854,42.13361799906133],[-122.55402200000002,42.13355299906133],[-122.55420200000003,42.13343899906132],[-122.55449899999999,42.13319699906133],[-122.55464499999998,42.133126999061325],[-122.55472499999999,42.133103999061326],[-122.55483699999998,42.13308699906134],[-122.55536499999998,42.133074999061336],[-122.55550999999997,42.133053999061325],[-122.555639,42.133021999061334],[-122.55616699999997,42.13281399906132],[-122.556516,42.13261599906134],[-122.557477,42.13182699906133],[-122.55765700000003,42.131670999061335],[-122.55804600000002,42.13133499906134],[-122.55815000000003,42.131275999061344],[-122.55832300000002,42.13123099906134],[-122.558531,42.131211999061335],[-122.558762,42.13122299906134],[-122.56016199999999,42.13139299906133],[-122.560906,42.131549999061335],[-122.561144,42.13156999906132],[-122.561407,42.13156399906133],[-122.56180366873893,42.13152472512197]],[[-122.35942279238878,42.12284734603928],[-122.359658,42.122782999061364],[-122.363456,42.121482999061364],[-122.36365599999998,42.121382999061375],[-122.36386600000002,42.12121999906137],[-122.365323,42.119709999061364],[-122.36547200000001,42.11952599906138],[-122.36554500000004,42.119414999061384],[-122.36559199999999,42.11929499906138],[-122.36580800000003,42.11863499906137],[-122.36595800000002,42.11833999906138],[-122.366129,42.11810799906136],[-122.36618100000001,42.11803699906139],[-122.36635500000001,42.11788799906138],[-122.36653873912684,42.11777953639512]],[[-122.34892170497871,42.124545827092255],[-122.348924,42.12454599906135],[-122.348966,42.12454599906135],[-122.34916900000002,42.12458299906136],[-122.34942100000002,42.12461899906136],[-122.35069200000001,42.12474099906135],[-122.350849,42.124758999061356],[-122.35103400000001,42.12478899906135],[-122.35138899999997,42.12482999906136],[-122.35180199999999,42.12488299906135],[-122.35189610044368,42.12488784976092]],[[-122.3536780583006,42.12428859570002],[-122.353682,42.12428599906136],[-122.35374,42.12423399906135],[-122.35377399999999,42.12416399906136],[-122.35378899137572,42.12408468995491]],[[-122.35543087299538,42.122343711792126],[-122.35553800000004,42.122332999061356],[-122.35581100000002,42.12232599906137],[-122.35620100000004,42.12236299906135],[-122.3562176103182,42.122367438484446]],[[-122.35780681005244,42.12284567476462],[-122.35820000000002,42.122962999061365],[-122.35856300000002,42.12299799906137],[-122.35857353154059,42.122998633498725]],[[-122.3587101717449,42.1230068648413],[-122.35872900000001,42.12300799906135],[-122.35884786974523,42.12299516656277]],[[-122.35889621859315,42.12298994706079],[-122.35890500000005,42.122988999061356],[-122.35892192610002,42.122984368616756]],[[-122.36671642414062,42.11769947371358],[-122.36671860444119,42.11769858933432]]]},"id":"003c00000000000008a9","properties":{"fullname":"State Hwy 66","linearid":"1105045766903","mtfcc":"S1200","rttyp":"S"}}]}